start=new Date('2022-04-12T00:00:00.000Z').valueOf();
sats=[{"MEAN_ANOMALY":"129.3582","INCLINATION":"53.0539","COUNTRY_CODE":"US","DECAY_DATE":null,"FILE":"3397723","SEMIMAJOR_AXIS":"6925.405","PERIAPSIS":"546.042","REF_FRAME":"TEME","SITE":"AFETR","TLE_LINE1":"1 47676U 21012BJ  22101.91667824 -.00056504  00000-0 -38065-2 0  9991","GP_ID":"201017368","CENTER_NAME":"EARTH","RA_OF_ASC_NODE":"231.1515","TIME_SYSTEM":"UTC","ELEMENT_SET_NO":"999","NORAD_CAT_ID":"47676","MEAN_MOTION_DDOT":"0.0000000000000","EPHEMERIS_TYPE":"0","OBJECT_TYPE":"PAYLOAD","BSTAR":"-0.00380650000000","MEAN_MOTION":"15.06381475","MEAN_ELEMENT_THEORY":"SGP4","PERIOD":"95.593","OBJECT_ID":"2021-012BJ","ARG_OF_PERICENTER":"42.9524","TLE_LINE2":"2 47676  53.0539 231.1515 0001773  42.9524 129.3582 15.06381475  3596","ECCENTRICITY":"0.00017730","APOAPSIS":"548.498","EPOCH":"2022-04-11T22:00:00.999936","CLASSIFICATION_TYPE":"U","MEAN_MOTION_DOT":"-0.00056504","LAUNCH_DATE":"2021-02-16","RCS_SIZE":"LARGE","OBJECT_NAME":"STARLINK-2083","REV_AT_EPOCH":"359"},{"REF_FRAME":"TEME","SITE":"AFETR","TLE_LINE1":"1 47677U 21012BK  22101.87666054 -.00000405  00000-0 -82705-5 0  9993","CENTER_NAME":"EARTH","GP_ID":"201017119","MEAN_ANOMALY":"298.1077","INCLINATION":"53.0547","COUNTRY_CODE":"US","DECAY_DATE":null,"FILE":"3397723","SEMIMAJOR_AXIS":"6925.342","PERIAPSIS":"546.162","ELEMENT_SET_NO":"999","TIME_SYSTEM":"UTC","MEAN_MOTION_DDOT":"0.0000000000000","NORAD_CAT_ID":"47677","EPHEMERIS_TYPE":"0","OBJECT_TYPE":"PAYLOAD","BSTAR":"-0.00000827050000","RA_OF_ASC_NODE":"1.3351","EPOCH":"2022-04-11T21:02:23.470656","MEAN_MOTION":"15.06402167","PERIOD":"95.592","MEAN_ELEMENT_THEORY":"SGP4","OBJECT_ID":"2021-012BK","ARG_OF_PERICENTER":"62.0065","TLE_LINE2":"2 47677  53.0547   1.3351 0001509  62.0065 298.1077 15.06402167 64774","ECCENTRICITY":"0.00015090","APOAPSIS":"548.252","LAUNCH_DATE":"2021-02-16","RCS_SIZE":"LARGE","OBJECT_NAME":"STARLINK-2090","REV_AT_EPOCH":"6477","CLASSIFICATION_TYPE":"U","MEAN_MOTION_DOT":"-0.00000405"},{"MEAN_ANOMALY":"278.1421","INCLINATION":"53.0551","COUNTRY_CODE":"US","DECAY_DATE":null,"FILE":"3397723","PERIAPSIS":"546.293","SEMIMAJOR_AXIS":"6925.347","REF_FRAME":"TEME","SITE":"AFETR","TLE_LINE1":"1 47679U 21012BM  22101.83884719  .00001197  00000-0  99220-4 0  9997","GP_ID":"201015867","CENTER_NAME":"EARTH","RA_OF_ASC_NODE":"1.5048","ELEMENT_SET_NO":"999","TIME_SYSTEM":"UTC","NORAD_CAT_ID":"47679","MEAN_MOTION_DDOT":"0.0000000000000","EPHEMERIS_TYPE":"0","OBJECT_TYPE":"PAYLOAD","BSTAR":"0.00009922000000","MEAN_MOTION":"15.06400474","PERIOD":"95.592","MEAN_ELEMENT_THEORY":"SGP4","OBJECT_ID":"2021-012BM","ARG_OF_PERICENTER":"81.9718","TLE_LINE2":"2 47679  53.0551   1.5048 0001327  81.9718 278.1421 15.06400474 64780","ECCENTRICITY":"0.00013270","APOAPSIS":"548.131","EPOCH":"2022-04-11T20:07:56.397216","CLASSIFICATION_TYPE":"U","MEAN_MOTION_DOT":"0.00001197","LAUNCH_DATE":"2021-02-16","RCS_SIZE":"LARGE","OBJECT_NAME":"STARLINK-2095","REV_AT_EPOCH":"6478"},{"RA_OF_ASC_NODE":"126.7103","OBJECT_TYPE":"PAYLOAD","EPHEMERIS_TYPE":"0","BSTAR":"0.00003094800000","MEAN_MOTION_DDOT":"0.0000000000000","NORAD_CAT_ID":"47722","ELEMENT_SET_NO":"999","TIME_SYSTEM":"UTC","PERIAPSIS":"546.063","SEMIMAJOR_AXIS":"6925.359","COUNTRY_CODE":"US","INCLINATION":"53.0541","MEAN_ANOMALY":"302.6064","FILE":"3397723","DECAY_DATE":null,"CENTER_NAME":"EARTH","GP_ID":"201016621","SITE":"AFETR","REF_FRAME":"TEME","TLE_LINE1":"1 47722U 21017A   22101.79232140  .00000179  00000-0  30948-4 0  9992","MEAN_MOTION_DOT":"0.00000179","CLASSIFICATION_TYPE":"U","OBJECT_NAME":"STARLINK-2068","RCS_SIZE":"LARGE","REV_AT_EPOCH":"6277","LAUNCH_DATE":"2021-03-04","TLE_LINE2":"2 47722  53.0541 126.7103 0001677  57.5087 302.6064 15.06396508 62771","APOAPSIS":"548.386","ECCENTRICITY":"0.00016770","MEAN_MOTION":"15.06396508","ARG_OF_PERICENTER":"57.5087","OBJECT_ID":"2021-017A","MEAN_ELEMENT_THEORY":"SGP4","PERIOD":"95.592","EPOCH":"2022-04-11T19:00:56.568960"},{"NORAD_CAT_ID":"47723","MEAN_MOTION_DDOT":"0.0000000000000","ELEMENT_SET_NO":"999","TIME_SYSTEM":"UTC","OBJECT_TYPE":"PAYLOAD","EPHEMERIS_TYPE":"0","BSTAR":"-0.00001474700000","RA_OF_ASC_NODE":"62.4643","SITE":"AFETR","REF_FRAME":"TEME","TLE_LINE1":"1 47723U 21017B   22101.62417089 -.00000501  00000-0 -14747-4 0  9992","GP_ID":"201017373","CENTER_NAME":"EARTH","COUNTRY_CODE":"US","MEAN_ANOMALY":"293.8115","INCLINATION":"53.0560","FILE":"3397723","DECAY_DATE":null,"PERIAPSIS":"546.180","SEMIMAJOR_AXIS":"6925.384","LAUNCH_DATE":"2021-03-04","OBJECT_NAME":"STARLINK-2107","RCS_SIZE":"LARGE","REV_AT_EPOCH":"6362","MEAN_MOTION_DOT":"-0.00000501","CLASSIFICATION_TYPE":"U","EPOCH":"2022-04-11T14:58:48.364896","MEAN_MOTION":"15.06388303","ARG_OF_PERICENTER":"66.3036","OBJECT_ID":"2021-017B","MEAN_ELEMENT_THEORY":"SGP4","PERIOD":"95.593","TLE_LINE2":"2 47723  53.0560  62.4643 0001544  66.3036 293.8115 15.06388303 63620","APOAPSIS":"548.319","ECCENTRICITY":"0.00015440"},{"APOAPSIS":"548.285","ECCENTRICITY":"0.00014810","TLE_LINE2":"2 47724  53.0577  61.3986 0001481  66.8860 293.2285 15.06385026 63628","OBJECT_ID":"2021-017C","ARG_OF_PERICENTER":"66.8860","MEAN_ELEMENT_THEORY":"SGP4","PERIOD":"95.593","MEAN_MOTION":"15.06385026","EPOCH":"2022-04-11T20:38:30.778944","MEAN_MOTION_DOT":"0.00000028","CLASSIFICATION_TYPE":"U","REV_AT_EPOCH":"6362","OBJECT_NAME":"STARLINK-2116","RCS_SIZE":"LARGE","LAUNCH_DATE":"2021-03-04","PERIAPSIS":"546.234","SEMIMAJOR_AXIS":"6925.394","FILE":"3397723","DECAY_DATE":null,"COUNTRY_CODE":"US","INCLINATION":"53.0577","MEAN_ANOMALY":"293.2285","GP_ID":"201017124","CENTER_NAME":"EARTH","TLE_LINE1":"1 47724U 21017C   22101.86007846  .00000028  00000-0  20777-4 0  9997","SITE":"AFETR","REF_FRAME":"TEME","RA_OF_ASC_NODE":"61.3986","BSTAR":"0.00002077700000","OBJECT_TYPE":"PAYLOAD","EPHEMERIS_TYPE":"0","MEAN_MOTION_DDOT":"0.0000000000000","NORAD_CAT_ID":"47724","ELEMENT_SET_NO":"999","TIME_SYSTEM":"UTC"},{"GP_ID":"201015872","CENTER_NAME":"EARTH","SITE":"AFETR","REF_FRAME":"TEME","TLE_LINE1":"1 47725U 21017D   22101.56243398  .00001061  00000-0  90146-4 0  9994","PERIAPSIS":"545.847","SEMIMAJOR_AXIS":"6925.367","COUNTRY_CODE":"US","INCLINATION":"53.0533","MEAN_ANOMALY":"307.6762","FILE":"3397723","DECAY_DATE":null,"OBJECT_TYPE":"PAYLOAD","EPHEMERIS_TYPE":"0","BSTAR":"0.00009014600000","MEAN_MOTION_DDOT":"0.0000000000000","NORAD_CAT_ID":"47725","TIME_SYSTEM":"UTC","ELEMENT_SET_NO":"999","RA_OF_ASC_NODE":"132.7406","EPOCH":"2022-04-11T13:29:54.295872","TLE_LINE2":"2 47725  53.0533 132.7406 0002000  52.4408 307.6762 15.06394017 62616","APOAPSIS":"548.617","ECCENTRICITY":"0.00020000","MEAN_MOTION":"15.06394017","OBJECT_ID":"2021-017D","ARG_OF_PERICENTER":"52.4408","PERIOD":"95.593","MEAN_ELEMENT_THEORY":"SGP4","OBJECT_NAME":"STARLINK-2125","RCS_SIZE":"LARGE","REV_AT_EPOCH":"6261","LAUNCH_DATE":"2021-03-04","MEAN_MOTION_DOT":"0.00001061","CLASSIFICATION_TYPE":"U"},{"CENTER_NAME":"EARTH","GP_ID":"201016122","SITE":"AFETR","REF_FRAME":"TEME","TLE_LINE1":"1 47726U 21017E   22101.81307864  .00007311  00000-0  50897-3 0  9994","PERIAPSIS":"545.905","SEMIMAJOR_AXIS":"6925.300","COUNTRY_CODE":"US","INCLINATION":"53.0523","MEAN_ANOMALY":"305.3869","FILE":"3397723","DECAY_DATE":null,"OBJECT_TYPE":"PAYLOAD","EPHEMERIS_TYPE":"0","BSTAR":"0.00050897000000","NORAD_CAT_ID":"47726","MEAN_MOTION_DDOT":"0.0000000000000","TIME_SYSTEM":"UTC","ELEMENT_SET_NO":"999","RA_OF_ASC_NODE":"131.6082","EPOCH":"2022-04-11T19:30:49.994496","TLE_LINE2":"2 47726  53.0523 131.6082 0001820  54.7290 305.3869 15.06415708 62644","APOAPSIS":"548.426","ECCENTRICITY":"0.00018200","MEAN_MOTION":"15.06415708","OBJECT_ID":"2021-017E","ARG_OF_PERICENTER":"54.7290","MEAN_ELEMENT_THEORY":"SGP4","PERIOD":"95.591","OBJECT_NAME":"STARLINK-2126","RCS_SIZE":"MEDIUM","REV_AT_EPOCH":"6264","LAUNCH_DATE":"2021-03-04","MEAN_MOTION_DOT":"0.00007311","CLASSIFICATION_TYPE":"U"},{"ECCENTRICITY":"0.00015320","APOAPSIS":"548.325","TLE_LINE2":"2 47727  53.0551  51.2368 0001532  52.8576 307.2553 15.06383535 63819","MEAN_ELEMENT_THEORY":"SGP4","PERIOD":"95.593","OBJECT_ID":"2021-017F","ARG_OF_PERICENTER":"52.8576","MEAN_MOTION":"15.06383535","EPOCH":"2022-04-11T21:31:33.146688","CLASSIFICATION_TYPE":"U","MEAN_MOTION_DOT":"0.00000014","REV_AT_EPOCH":"6381","RCS_SIZE":"LARGE","OBJECT_NAME":"STARLINK-2129","LAUNCH_DATE":"2021-03-04","PERIAPSIS":"546.203","SEMIMAJOR_AXIS":"6925.399","DECAY_DATE":null,"FILE":"3397723","MEAN_ANOMALY":"307.2553","INCLINATION":"53.0551","COUNTRY_CODE":"US","CENTER_NAME":"EARTH","GP_ID":"201016874","TLE_LINE1":"1 47727U 21017F   22101.89691142  .00000014  00000-0  19870-4 0  9998","REF_FRAME":"TEME","SITE":"AFETR","RA_OF_ASC_NODE":"51.2368","BSTAR":"0.00001987000000","EPHEMERIS_TYPE":"0","OBJECT_TYPE":"PAYLOAD","ELEMENT_SET_NO":"999","TIME_SYSTEM":"UTC","MEAN_MOTION_DDOT":"0.0000000000000","NORAD_CAT_ID":"47727"},{"DECAY_DATE":null,"FILE":"3397723","MEAN_ANOMALY":"305.2010","INCLINATION":"53.0539","COUNTRY_CODE":"US","SEMIMAJOR_AXIS":"6925.359","PERIAPSIS":"545.992","TLE_LINE1":"1 47728U 21017G   22101.78727472  .00001953  00000-0  14997-3 0  9990","REF_FRAME":"TEME","SITE":"AFETR","GP_ID":"201017624","CENTER_NAME":"EARTH","RA_OF_ASC_NODE":"131.7332","ELEMENT_SET_NO":"999","TIME_SYSTEM":"UTC","MEAN_MOTION_DDOT":"0.0000000000000","NORAD_CAT_ID":"47728","BSTAR":"0.00014997000000","EPHEMERIS_TYPE":"0","OBJECT_TYPE":"PAYLOAD","MEAN_ELEMENT_THEORY":"SGP4","PERIOD":"95.592","ARG_OF_PERICENTER":"54.9146","OBJECT_ID":"2021-017G","MEAN_MOTION":"15.06396551","ECCENTRICITY":"0.00017790","APOAPSIS":"548.456","TLE_LINE2":"2 47728  53.0539 131.7332 0001779  54.9146 305.2010 15.06396551 62705","EPOCH":"2022-04-11T18:53:40.535808","CLASSIFICATION_TYPE":"U","MEAN_MOTION_DOT":"0.00001953","LAUNCH_DATE":"2021-03-04","REV_AT_EPOCH":"6270","RCS_SIZE":"LARGE","OBJECT_NAME":"STARLINK-2131"}];
